STARLINK-31792          
1 60132U 24118V   26068.26077840 -.00001876  00000+0 -51265-4 0  9990
2 60132  53.1621  26.3239 0001186 132.0273 228.0828 15.30184207 95668
KUIPER-00226            
1 67785U 26030X   26068.62629313  .00046834  00000+0  15530-2 0  9998
2 67785  51.8814 220.1252 0017713  64.2781 296.0030 15.30655594  5078
